SORCE                   
1 27651U 03004A   26068.43340162  .00003920  00000+0  29573-3 0  9995
2 27651  39.9899 110.5611 0015930  53.0009 307.2241 15.03094555256885
STARLINK-6335           
1 56527U 23065AA  26068.44855206  .00000089  00000+0  21692-4 0  9997
2 56527  43.0007 211.1962 0001201 265.9221  94.1484 15.02536280156592
